{"type": "FeatureCollection", "features": [ {"type": "Feature", "properties": {"norad_id": 40689, "name": "FENGYUN 1C DEB", "group": "fengyun-1c-debris", "lat": 80.84687245307192, "lon": 162.01737659493546, "alt_km": 820.3574529921652, "timestamp": "2025-12-03T13:52:09.852260+00:00", "meta": {"OBJECT_NAME": "FENGYUN 1C DEB", "OBJECT_ID": "1999-025EWV", "EPOCH": "2025-12-03T01:06:50.802912", "MEAN_MOTION": 13.64656571, "ECCENTRICITY": 0.03097255, "INCLINATION": 99.1251, "RA_OF_ASC_NODE": 255.5784, "ARG_OF_PERICENTER": 126.5569, "MEAN_ANOMALY": 236.4512, "EPHEMERIS_TYPE": 0, "CLASSIFICATION_TYPE": "U", "NORAD_CAT_ID": 40689, "ELEMENT_SET_NO": 999, "REV_AT_EPOCH": 54751, "BSTAR": 0.0014793346, "MEAN_MOTION_DOT": 1.611e-05, "MEAN_MOTION_DDOT": 0}, "tle": {"line1": "1 40689U 99025EWV 25337.04642133  .00001611  00000+0  14793-2 0  9999", "line2": "2 40689  99.1251 255.5784 0309725 126.5569 236.4512 13.64656571547511"}}, "geometry": {"type": "Point", "coordinates": [162.01737659493546, 80.84687245307192]}}, {"type": "Feature", "properties": {"norad_id": 40691, "name": "FENGYUN 1C DEB", "group": "fengyun-1c-debris", "lat": 80.78048775700789, "lon": -90.58593038990928, "alt_km": 961.1236143395272, "timestamp": "2025-12-03T13:52:09.852270+00:00", "meta": {"OBJECT_NAME": "FENGYUN 1C DEB", "OBJECT_ID": "1999-025EWX", "EPOCH": "2025-12-03T08:15:02.306016", "MEAN_MOTION": 13.8994473, "ECCENTRICITY": 0.01284341, "INCLINATION": 99.0573, "RA_OF_ASC_NODE": 9.8547, "ARG_OF_PERICENTER": 336.6089, "MEAN_ANOMALY": 22.9259, "EPHEMERIS_TYPE": 0, "CLASSIFICATION_TYPE": "U", "NORAD_CAT_ID": 40691, "ELEMENT_SET_NO": 999, "REV_AT_EPOCH": 55305, "BSTAR": 0.00023936688, "MEAN_MOTION_DOT": 2.71e-06, "MEAN_MOTION_DDOT": 0}, "tle": {"line1": "1 40691U 99025EWX 25337.34377669  .00000271  00000+0  23937-3 0  9996", "line2": "2 40691  99.0573   9.8547 0128434 336.6089  22.9259 13.89944730553050"}}, "geometry": {"type": "Point", "coordinates": [-90.58593038990928, 80.78048775700789]}}, {"type": "Feature", "properties": {"norad_id": 40695, "name": "FENGYUN 1C DEB", "group": "fengyun-1c-debris", "lat": -54.75458054141408, "lon": 108.27285764418113, "alt_km": 613.957098206296, "timestamp": "2025-12-03T13:52:09.852282+00:00", "meta": {"OBJECT_NAME": "FENGYUN 1C DEB", "OBJECT_ID": "1999-025EXB", "EPOCH": "2025-11-30T01:42:31.870080", "MEAN_MOTION": 14.50916136, "ECCENTRICITY": 0.02815501, "INCLINATION": 99.4248, "RA_OF_ASC_NODE": 90.7471, "ARG_OF_PERICENTER": 10.5794, "MEAN_ANOMALY": 350.1155, "EPHEMERIS_TYPE": 0, "CLASSIFICATION_TYPE": "U", "NORAD_CAT_ID": 40695, "ELEMENT_SET_NO": 999, "REV_AT_EPOCH": 31682, "BSTAR": 0.00020572034, "MEAN_MOTION_DOT": 1.283e-05, "MEAN_MOTION_DDOT": 0}, "tle": {"line1": "1 40695U 99025EXB 25334.07120220  .00001283  00000+0  20572-3 0  9992", "line2": "2 40695  99.4248  90.7471 0281550  10.5794 350.1155 14.50916136316823"}}, "geometry": {"type": "Point", "coordinates": [108.27285764418113, -54.75458054141408]}}, {"type": "Feature", "properties": {"norad_id": 40696, "name": "FENGYUN 1C DEB", "group": "fengyun-1c-debris", "lat": 4.464961699913724, "lon": 145.28148382785218, "alt_km": 959.5465876608368, "timestamp": "2025-12-03T13:52:09.852292+00:00", "meta": {"OBJECT_NAME": "FENGYUN 1C DEB", "OBJECT_ID": "1999-025EXC", "EPOCH": "2025-11-26T05:40:29.681760", "MEAN_MOTION": 13.96727195, "ECCENTRICITY": 0.00806572, "INCLINATION": 98.9548, "RA_OF_ASC_NODE": 317.4298, "ARG_OF_PERICENTER": 42.7994, "MEAN_ANOMALY": 317.9411, "EPHEMERIS_TYPE": 0, "CLASSIFICATION_TYPE": "U", "NORAD_CAT_ID": 40696, "ELEMENT_SET_NO": 999, "REV_AT_EPOCH": 55449, "BSTAR": 0.0001965233, "MEAN_MOTION_DOT": 2.38e-06, "MEAN_MOTION_DDOT": 0}, "tle": {"line1": "1 40696U 99025EXC 25330.23645465  .00000238  00000+0  19652-3 0  9996", "line2": "2 40696  98.9548 317.4298 0080657  42.7994 317.9411 13.96727195554498"}}, "geometry": {"type": "Point", "coordinates": [145.28148382785218, 4.464961699913724]}}, {"type": "Feature", "properties": {"norad_id": 41003, "name": "FENGYUN 1C DEB", "group": "fengyun-1c-debris", "lat": 75.07779442412146, "lon": 112.08078438521494, "alt_km": 688.1157113455001, "timestamp": "2025-12-03T13:52:09.852303+00:00", "meta": {"OBJECT_NAME": "FENGYUN 1C DEB", "OBJECT_ID": "1999-025EXH", "EPOCH": "2025-12-03T00:21:19.602144", "MEAN_MOTION": 14.71816903, "ECCENTRICITY": 0.00737414, "INCLINATION": 98.9662, "RA_OF_ASC_NODE": 255.1295, "ARG_OF_PERICENTER": 322.6768, "MEAN_ANOMALY": 36.9325, "EPHEMERIS_TYPE": 0, "CLASSIFICATION_TYPE": "U", "NORAD_CAT_ID": 41003, "ELEMENT_SET_NO": 999, "REV_AT_EPOCH": 52277, "BSTAR": 0.0063202081, "MEAN_MOTION_DOT": 0.00041396, "MEAN_MOTION_DDOT": 0}, "tle": {"line1": "1 41003U 99025EXH 25337.01481021  .00041396  00000+0  63202-2 0  9997", "line2": "2 41003  98.9662 255.1295 0073741 322.6768  36.9325 14.71816903522776"}}, "geometry": {"type": "Point", "coordinates": [112.08078438521494, 75.07779442412146]}}, {"type": "Feature", "properties": {"norad_id": 41006, "name": "FENGYUN 1C DEB", "group": "fengyun-1c-debris", "lat": -38.631133370377604, "lon": -144.4194203245611, "alt_km": 901.3617159266532, "timestamp": "2025-12-03T13:52:09.852313+00:00", "meta": {"OBJECT_NAME": "FENGYUN 1C DEB", "OBJECT_ID": "1999-025EXL", "EPOCH": "2025-12-02T20:43:22.583712", "MEAN_MOTION": 13.85253957, "ECCENTRICITY": 0.0188796, "INCLINATION": 102.3666, "RA_OF_ASC_NODE": 204.5434, "ARG_OF_PERICENTER": 31.8016, "MEAN_ANOMALY": 329.4368, "EPHEMERIS_TYPE": 0, "CLASSIFICATION_TYPE": "U", "NORAD_CAT_ID": 41006, "ELEMENT_SET_NO": 999, "REV_AT_EPOCH": 57352, "BSTAR": 0.0034712137, "MEAN_MOTION_DOT": 4.465e-05, "MEAN_MOTION_DDOT": 0}, "tle": {"line1": "1 41006U 99025EXL 25336.86345583  .00004465  00000+0  34712-2 0  9994", "line2": "2 41006 102.3666 204.5434 0188796  31.8016 329.4368 13.85253957573522"}}, "geometry": {"type": "Point", "coordinates": [-144.4194203245611, -38.631133370377604]}}, {"type": "Feature", "properties": {"norad_id": 41011, "name": "FENGYUN 1C DEB", "group": "fengyun-1c-debris", "lat": -30.584670395370132, "lon": -163.59560976393783, "alt_km": 975.7088414886321, "timestamp": "2025-12-03T13:52:09.852324+00:00", "meta": {"OBJECT_NAME": "FENGYUN 1C DEB", "OBJECT_ID": "1999-025EXR", "EPOCH": "2025-12-02T01:56:56.723712", "MEAN_MOTION": 14.4279186, "ECCENTRICITY": 0.03109814, "INCLINATION": 99.1713, "RA_OF_ASC_NODE": 20.2717, "ARG_OF_PERICENTER": 29.6469, "MEAN_ANOMALY": 332.195, "EPHEMERIS_TYPE": 0, "CLASSIFICATION_TYPE": "U", "NORAD_CAT_ID": 41011, "ELEMENT_SET_NO": 999, "REV_AT_EPOCH": 57003, "BSTAR": 0.00060418424, "MEAN_MOTION_DOT": 3.56e-05, "MEAN_MOTION_DDOT": 0}, "tle": {"line1": "1 41011U 99025EXR 25336.08121208  .00003560  00000+0  60418-3 0  9998", "line2": "2 41011  99.1713  20.2717 0310981  29.6469 332.1950 14.42791860570036"}}, "geometry": {"type": "Point", "coordinates": [-163.59560976393783, -30.584670395370132]}}, {"type": "Feature", "properties": {"norad_id": 41018, "name": "FENGYUN 1C DEB", "group": "fengyun-1c-debris", "lat": -75.33807357757667, "lon": -36.02765795780391, "alt_km": 1237.4490220227108, "timestamp": "2025-12-03T13:52:09.852334+00:00", "meta": {"OBJECT_NAME": "FENGYUN 1C DEB", "OBJECT_ID": "1999-025EXY", "EPOCH": "2025-11-14T13:55:42.109536", "MEAN_MOTION": 13.52269451, "ECCENTRICITY": 0.03030631, "INCLINATION": 99.9325, "RA_OF_ASC_NODE": 262.8906, "ARG_OF_PERICENTER": 189.0805, "MEAN_ANOMALY": 170.4772, "EPHEMERIS_TYPE": 0, "CLASSIFICATION_TYPE": "U", "NORAD_CAT_ID": 41018, "ELEMENT_SET_NO": 999, "REV_AT_EPOCH": 87794, "BSTAR": 0.0023936359, "MEAN_MOTION_DOT": 2.062e-05, "MEAN_MOTION_DDOT": 0}, "tle": {"line1": "1 41018U 99025EXY 25318.58034849  .00002062  00000+0  23936-2 0  9993", "line2": "2 41018  99.9325 262.8906 0303063 189.0805 170.4772 13.52269451877943"}}, "geometry": {"type": "Point", "coordinates": [-36.02765795780391, -75.33807357757667]}}, {"type": "Feature", "properties": {"norad_id": 41822, "name": "FENGYUN 1C DEB", "group": "fengyun-1c-debris", "lat": 80.49477674546058, "lon": -69.5216924505289, "alt_km": 837.166200658382, "timestamp": "2025-12-03T13:52:09.852345+00:00", "meta": {"OBJECT_NAME": "FENGYUN 1C DEB", "OBJECT_ID": "1999-025EXZ", "EPOCH": "2025-12-03T03:18:49.388832", "MEAN_MOTION": 14.24679698, "ECCENTRICITY": 0.00547838, "INCLINATION": 98.7332, "RA_OF_ASC_NODE": 43.4001, "ARG_OF_PERICENTER": 248.0214, "MEAN_ANOMALY": 111.5138, "EPHEMERIS_TYPE": 0, "CLASSIFICATION_TYPE": "U", "NORAD_CAT_ID": 41822, "ELEMENT_SET_NO": 999, "REV_AT_EPOCH": 47236, "BSTAR": 0.0021587019, "MEAN_MOTION_DOT": 5.059e-05, "MEAN_MOTION_DDOT": 0}, "tle": {"line1": "1 41822U 99025EXZ 25337.13807163  .00005059  00000+0  21587-2 0  9994", "line2": "2 41822  98.7332  43.4001 0054783 248.0214 111.5138 14.24679698472369"}}, "geometry": {"type": "Point", "coordinates": [-69.5216924505289, 80.49477674546058]}}, {"type": "Feature", "properties": {"norad_id": 41823, "name": "FENGYUN 1C DEB", "group": "fengyun-1c-debris", "lat": -26.40379641629852, "lon": -143.38627207957688, "alt_km": 793.3172271638259, "timestamp": "2025-12-03T13:52:09.852355+00:00", "meta": {"OBJECT_NAME": "FENGYUN 1C DEB", "OBJECT_ID": "1999-025EYA", "EPOCH": "2025-12-03T02:46:27.926400", "MEAN_MOTION": 14.23411276, "ECCENTRICITY": 0.00541675, "INCLINATION": 98.7219, "RA_OF_ASC_NODE": 40.5267, "ARG_OF_PERICENTER": 256.0412, "MEAN_ANOMALY": 103.4739, "EPHEMERIS_TYPE": 0, "CLASSIFICATION_TYPE": "U", "NORAD_CAT_ID": 41823, "ELEMENT_SET_NO": 999, "REV_AT_EPOCH": 47221, "BSTAR": 0.0020086619, "MEAN_MOTION_DOT": 4.587e-05, "MEAN_MOTION_DDOT": 0}, "tle": {"line1": "1 41823U 99025EYA 25337.11560100  .00004587  00000+0  20087-2 0  9999", "line2": "2 41823  98.7219  40.5267 0054167 256.0412 103.4739 14.23411276472217"}}, "geometry": {"type": "Point", "coordinates": [-143.38627207957688, -26.40379641629852]}}]}